STARLINK-31047          
1 58783U 24011U   26044.65987086  .00001003  00000+0  46002-4 0  9993
2 58783  53.1610 109.7439 0001267  85.2266 274.8880 15.30197625116810
STARLINK-31039          
1 58784U 24011V   26045.20674916  .00001019  00000+0  46546-4 0  9991
2 58784  53.1589 122.8344 0001081  76.4397 283.6724 15.30192378116677
STARLINK-31034          
1 58785U 24011W   26045.19492760  .00001829  00000+0  73868-4 0  9991
2 58785  53.1634  20.4400 0001209  82.6570 277.4568 15.30189637118133
STARLINK-31024          
1 58786U 24011X   26045.21149746  .00002949  00000+0  11169-3 0  9997
2 58786  53.1592 120.7591 0001067  70.4612 289.6504 15.30191245116700
STARLINK-31189          
1 58787U 24012A   26044.97672561 -.00002249  00000+0 -72189-4 0  9992
2 58787  43.0032 298.8067 0001786 240.3918 119.6756 15.27591731117610
STARLINK-31185          
1 58788U 24012B   26045.09864618 -.00000531  00000+0 -97584-5 0  9992
2 58788  43.0042 298.8558 0001534 265.1925  94.8751 15.27591286117626
STARLINK-31166          
1 58789U 24012C   26045.12422735 -.00001134  00000+0 -31727-4 0  9993
2 58789  43.0003 298.1861 0000795 257.9453 102.1310 15.27556672117632
STARLINK-31187          
1 58790U 24012D   26045.09736726  .00002051  00000+0  84042-4 0  9994
2 58790  43.0050 298.8471 0001413 275.4383  84.6307 15.27575799117625
STARLINK-31162          
1 58791U 24012E   26045.18830300  .00002710  00000+0  10797-3 0  9995
2 58791  43.0003 297.8191 0001104 284.5444  75.5286 15.27582610117645
STARLINK-31184          
1 58793U 24012G   26045.11778234  .00000572  00000+0  30304-4 0  9998
2 58793  43.0021 298.1399 0001276 262.3629  97.7077 15.27572110117637
STARLINK-31192          
1 58794U 24012H   26045.09479702 -.00001627  00000+0 -49577-4 0  9990
2 58794  43.0029 298.8243 0001033 295.3711  64.7034 15.27592990117624
STARLINK-31161          
1 58795U 24012J   26045.05496985 -.00000409  00000+0 -53613-5 0  9993
2 58795  42.9995 298.5295 0000661 279.9663  80.1114 15.27575882117621
STARLINK-31195          
1 58796U 24012K   26045.10251123 -.00000047  00000+0  78424-5 0  9997
2 58796  43.0035 298.8874 0001881 258.3726 101.6915 15.27575936117629
STARLINK-31193          
1 58797U 24012L   26045.06395795  .00000119  00000+0  13855-4 0  9992
2 58797  42.9991 298.5900 0001289 246.0176 114.0540 15.27575902117626
STARLINK-31168          
1 58798U 24012M   26045.06780998 -.00005447  00000+0 -18842-3 0  9997
2 58798  42.9993 298.6226 0001038 281.3724  78.7011 15.27606988117622
STARLINK-31191          
1 58800U 24012P   26045.11392357 -.00007683  00000+0 -26970-3 0  9990
2 58800  43.0056 298.1063 0002248 258.9294 101.1305 15.27607365117636
