[{"OBJECT_NAME":"STARLINK-31047","OBJECT_ID":"2024-011U","EPOCH":"2026-02-13T15:50:12.842304","MEAN_MOTION":15.30197625,"ECCENTRICITY":0.0001267,"INCLINATION":53.161,"RA_OF_ASC_NODE":109.7439,"ARG_OF_PERICENTER":85.2266,"MEAN_ANOMALY":274.888,"EPHEMERIS_TYPE":0,"CLASSIFICATION_TYPE":"U","NORAD_CAT_ID":58783,"ELEMENT_SET_NO":999,"REV_AT_EPOCH":11681,"BSTAR":4.6002161e-5,"MEAN_MOTION_DOT":1.003e-5,"MEAN_MOTION_DDOT":0},{"OBJECT_NAME":"STARLINK-31039","OBJECT_ID":"2024-011V","EPOCH":"2026-02-14T04:57:43.127424","MEAN_MOTION":15.30192378,"ECCENTRICITY":0.00010814,"INCLINATION":53.1589,"RA_OF_ASC_NODE":122.8344,"ARG_OF_PERICENTER":76.4397,"MEAN_ANOMALY":283.6724,"EPHEMERIS_TYPE":0,"CLASSIFICATION_TYPE":"U","NORAD_CAT_ID":58784,"ELEMENT_SET_NO":999,"REV_AT_EPOCH":11667,"BSTAR":4.6546429e-5,"MEAN_MOTION_DOT":1.019e-5,"MEAN_MOTION_DDOT":0},{"OBJECT_NAME":"STARLINK-31034","OBJECT_ID":"2024-011W","EPOCH":"2026-02-14T04:40:41.744640","MEAN_MOTION":15.30189637,"ECCENTRICITY":0.00012093,"INCLINATION":53.1634,"RA_OF_ASC_NODE":20.44,"ARG_OF_PERICENTER":82.657,"MEAN_ANOMALY":277.4568,"EPHEMERIS_TYPE":0,"CLASSIFICATION_TYPE":"U","NORAD_CAT_ID":58785,"ELEMENT_SET_NO":999,"REV_AT_EPOCH":11813,"BSTAR":7.3868398e-5,"MEAN_MOTION_DOT":1.829e-5,"MEAN_MOTION_DDOT":0},{"OBJECT_NAME":"STARLINK-31024","OBJECT_ID":"2024-011X","EPOCH":"2026-02-14T05:04:33.380544","MEAN_MOTION":15.30191245,"ECCENTRICITY":0.00010673,"INCLINATION":53.1592,"RA_OF_ASC_NODE":120.7591,"ARG_OF_PERICENTER":70.4612,"MEAN_ANOMALY":289.6504,"EPHEMERIS_TYPE":0,"CLASSIFICATION_TYPE":"U","NORAD_CAT_ID":58786,"ELEMENT_SET_NO":999,"REV_AT_EPOCH":11670,"BSTAR":0.00011168535,"MEAN_MOTION_DOT":2.949e-5,"MEAN_MOTION_DDOT":0},{"OBJECT_NAME":"STARLINK-31189","OBJECT_ID":"2024-012A","EPOCH":"2026-02-13T23:26:29.092704","MEAN_MOTION":15.27591731,"ECCENTRICITY":0.00017869,"INCLINATION":43.0032,"RA_OF_ASC_NODE":298.8067,"ARG_OF_PERICENTER":240.3918,"MEAN_ANOMALY":119.6756,"EPHEMERIS_TYPE":0,"CLASSIFICATION_TYPE":"U","NORAD_CAT_ID":58787,"ELEMENT_SET_NO":999,"REV_AT_EPOCH":11761,"BSTAR":-7.2188909e-5,"MEAN_MOTION_DOT":-2.249e-5,"MEAN_MOTION_DDOT":0},{"OBJECT_NAME":"STARLINK-31185","OBJECT_ID":"2024-012B","EPOCH":"2026-02-14T02:22:03.029952","MEAN_MOTION":15.27591286,"ECCENTRICITY":0.00015349,"INCLINATION":43.0042,"RA_OF_ASC_NODE":298.8558,"ARG_OF_PERICENTER":265.1925,"MEAN_ANOMALY":94.8751,"EPHEMERIS_TYPE":0,"CLASSIFICATION_TYPE":"U","NORAD_CAT_ID":58788,"ELEMENT_SET_NO":999,"REV_AT_EPOCH":11762,"BSTAR":-9.758383e-6,"MEAN_MOTION_DOT":-5.31e-6,"MEAN_MOTION_DDOT":0},{"OBJECT_NAME":"STARLINK-31166","OBJECT_ID":"2024-012C","EPOCH":"2026-02-14T02:58:53.243040","MEAN_MOTION":15.27556672,"ECCENTRICITY":7.951e-5,"INCLINATION":43.0003,"RA_OF_ASC_NODE":298.1861,"ARG_OF_PERICENTER":257.9453,"MEAN_ANOMALY":102.131,"EPHEMERIS_TYPE":0,"CLASSIFICATION_TYPE":"U","NORAD_CAT_ID":58789,"ELEMENT_SET_NO":999,"REV_AT_EPOCH":11763,"BSTAR":-3.1726638e-5,"MEAN_MOTION_DOT":-1.134e-5,"MEAN_MOTION_DDOT":0},{"OBJECT_NAME":"STARLINK-31187","OBJECT_ID":"2024-012D","EPOCH":"2026-02-14T02:20:12.531264","MEAN_MOTION":15.27575799,"ECCENTRICITY":0.00014134,"INCLINATION":43.005,"RA_OF_ASC_NODE":298.8471,"ARG_OF_PERICENTER":275.4383,"MEAN_ANOMALY":84.6307,"EPHEMERIS_TYPE":0,"CLASSIFICATION_TYPE":"U","NORAD_CAT_ID":58790,"ELEMENT_SET_NO":999,"REV_AT_EPOCH":11762,"BSTAR":8.4042277e-5,"MEAN_MOTION_DOT":2.051e-5,"MEAN_MOTION_DDOT":0},{"OBJECT_NAME":"STARLINK-31162","OBJECT_ID":"2024-012E","EPOCH":"2026-02-14T04:31:09.379200","MEAN_MOTION":15.2758261,"ECCENTRICITY":0.0001104,"INCLINATION":43.0003,"RA_OF_ASC_NODE":297.8191,"ARG_OF_PERICENTER":284.5444,"MEAN_ANOMALY":75.5286,"EPHEMERIS_TYPE":0,"CLASSIFICATION_TYPE":"U","NORAD_CAT_ID":58791,"ELEMENT_SET_NO":999,"REV_AT_EPOCH":11764,"BSTAR":0.00010796591,"MEAN_MOTION_DOT":2.71e-5,"MEAN_MOTION_DDOT":0},{"OBJECT_NAME":"STARLINK-31184","OBJECT_ID":"2024-012G","EPOCH":"2026-02-14T02:49:36.394176","MEAN_MOTION":15.2757211,"ECCENTRICITY":0.00012768,"INCLINATION":43.0021,"RA_OF_ASC_NODE":298.1399,"ARG_OF_PERICENTER":262.3629,"MEAN_ANOMALY":97.7077,"EPHEMERIS_TYPE":0,"CLASSIFICATION_TYPE":"U","NORAD_CAT_ID":58793,"ELEMENT_SET_NO":999,"REV_AT_EPOCH":11763,"BSTAR":3.030353e-5,"MEAN_MOTION_DOT":5.72e-6,"MEAN_MOTION_DDOT":0},{"OBJECT_NAME":"STARLINK-31192","OBJECT_ID":"2024-012H","EPOCH":"2026-02-14T02:16:30.462528","MEAN_MOTION":15.2759299,"ECCENTRICITY":0.00010331,"INCLINATION":43.0029,"RA_OF_ASC_NODE":298.8243,"ARG_OF_PERICENTER":295.3711,"MEAN_ANOMALY":64.7034,"EPHEMERIS_TYPE":0,"CLASSIFICATION_TYPE":"U","NORAD_CAT_ID":58794,"ELEMENT_SET_NO":999,"REV_AT_EPOCH":11762,"BSTAR":-4.9577063e-5,"MEAN_MOTION_DOT":-1.627e-5,"MEAN_MOTION_DDOT":0},{"OBJECT_NAME":"STARLINK-31161","OBJECT_ID":"2024-012J","EPOCH":"2026-02-14T01:19:09.395040","MEAN_MOTION":15.27575882,"ECCENTRICITY":6.615e-5,"INCLINATION":42.9995,"RA_OF_ASC_NODE":298.5295,"ARG_OF_PERICENTER":279.9663,"MEAN_ANOMALY":80.1114,"EPHEMERIS_TYPE":0,"CLASSIFICATION_TYPE":"U","NORAD_CAT_ID":58795,"ELEMENT_SET_NO":999,"REV_AT_EPOCH":11762,"BSTAR":-5.361286e-6,"MEAN_MOTION_DOT":-4.09e-6,"MEAN_MOTION_DDOT":0},{"OBJECT_NAME":"STARLINK-31195","OBJECT_ID":"2024-012K","EPOCH":"2026-02-14T02:27:36.970272","MEAN_MOTION":15.27575936,"ECCENTRICITY":0.00018812,"INCLINATION":43.0035,"RA_OF_ASC_NODE":298.8874,"ARG_OF_PERICENTER":258.3726,"MEAN_ANOMALY":101.6915,"EPHEMERIS_TYPE":0,"CLASSIFICATION_TYPE":"U","NORAD_CAT_ID":58796,"ELEMENT_SET_NO":999,"REV_AT_EPOCH":11762,"BSTAR":7.842376e-6,"MEAN_MOTION_DOT":-4.7e-7,"MEAN_MOTION_DDOT":0},{"OBJECT_NAME":"STARLINK-31193","OBJECT_ID":"2024-012L","EPOCH":"2026-02-14T01:32:05.966880","MEAN_MOTION":15.27575902,"ECCENTRICITY":0.00012898,"INCLINATION":42.9991,"RA_OF_ASC_NODE":298.59,"ARG_OF_PERICENTER":246.0176,"MEAN_ANOMALY":114.054,"EPHEMERIS_TYPE":0,"CLASSIFICATION_TYPE":"U","NORAD_CAT_ID":58797,"ELEMENT_SET_NO":999,"REV_AT_EPOCH":11762,"BSTAR":1.3854709e-5,"MEAN_MOTION_DOT":1.19e-6,"MEAN_MOTION_DDOT":0},{"OBJECT_NAME":"STARLINK-31168","OBJECT_ID":"2024-012M","EPOCH":"2026-02-14T01:37:38.782272","MEAN_MOTION":15.27606988,"ECCENTRICITY":0.00010387,"INCLINATION":42.9993,"RA_OF_ASC_NODE":298.6226,"ARG_OF_PERICENTER":281.3724,"MEAN_ANOMALY":78.7011,"EPHEMERIS_TYPE":0,"CLASSIFICATION_TYPE":"U","NORAD_CAT_ID":58798,"ELEMENT_SET_NO":999,"REV_AT_EPOCH":11762,"BSTAR":-0.00018841883,"MEAN_MOTION_DOT":-5.447e-5,"MEAN_MOTION_DDOT":0},{"OBJECT_NAME":"STARLINK-31191","OBJECT_ID":"2024-012P","EPOCH":"2026-02-14T02:44:02.996448","MEAN_MOTION":15.27607365,"ECCENTRICITY":0.00022484,"INCLINATION":43.0056,"RA_OF_ASC_NODE":298.1063,"ARG_OF_PERICENTER":258.9294,"MEAN_ANOMALY":101.1305,"EPHEMERIS_TYPE":0,"CLASSIFICATION_TYPE":"U","NORAD_CAT_ID":58800,"ELEMENT_SET_NO":999,"REV_AT_EPOCH":11763,"BSTAR":-0.00026969793,"MEAN_MOTION_DOT":-7.683e-5,"MEAN_MOTION_DDOT":0}]
